     3.04           N: GNSS NAV DATA    M: MIXED            RINEX VERSION / TYPE
ssrcrin-13.4.4x                         20210101 000000 UTC PGM / RUN BY / DATE 
                                                            END OF HEADER       
E26 2021 01 01 02 40 00 2.317171427421E-03-4.378364337754E-11 0.000000000000E+00
     9.600000000000E+01-4.037500000000E+01 3.201561929334E-09-3.138809722584E+00
    -1.730397343636E-06 3.565258812159E-04-3.283843398094E-06 5.440611427307E+03
     4.416000000000E+05 1.490116119385E-08-1.045113323519E+00 2.421438694000E-08
     9.865986542855E-01 4.231562500000E+02-1.946543538037E+00-6.075610216410E-09
    -1.042900583853E-10 2.580000000000E+02 2.138000000000E+03
     3.120000000000E+00 0.000000000000E+00 6.053596735001E-09 0.000000000000E+00
     4.423400000000E+05
E12 2021 01 01 02 40 00 5.429112701677E-03-1.884359335236E-11 0.000000000000E+00
     9.600000000000E+01-2.828125000000E+01 3.027983270514E-09 4.671657256591E-01
    -1.421198248863E-06 3.536563599482E-04-2.570450305939E-06 5.440606744766E+03
     4.416000000000E+05-7.078051567078E-08-1.046981598643E+00 5.401670932770E-08
     9.902079950290E-01 4.085000000000E+02-8.072110692497E-01-5.938104488744E-09
    -1.421487782100E-10 2.580000000000E+02 2.138000000000E+03
     3.120000000000E+00 0.000000000000E+00-1.047737896442E-08 0.000000000000E+00
     4.423400000000E+05
E19 2021 01 01 02 40 00 1.671766513027E-04 9.450218385609E-12 0.000000000000E+00
     9.600000000000E+01-2.371875000000E+01 2.999410651779E-09 2.389873483000E+00
    -1.011416316032E-06 1.250973436981E-04 1.063011586666E-05 5.440619371414E+03
     4.416000000000E+05 1.490116119385E-08 1.055300545206E+00 9.313225746155E-09
     9.598841580224E-01 1.135312500000E+02 2.302349650036E+00-5.322721712724E-09
     6.882429537959E-10 2.580000000000E+02 2.138000000000E+03
     3.120000000000E+00 0.000000000000E+00-3.725290298462E-09 0.000000000000E+00
     4.423400000000E+05
E07 2021 01 01 02 40 00-4.818758461624E-04-4.860112312599E-12 0.000000000000E+00
     9.600000000000E+01-5.031250000000E+00 3.188347093168E-09-5.041577992817E-01
    -2.067536115646E-07 1.597682712600E-04 1.074187457561E-05 5.440617080688E+03
     4.416000000000E+05 1.490116119385E-08 1.055517589584E+00 6.332993507385E-08
     9.541873458244E-01 1.065000000000E+02 3.937457966586E-01-5.417725670020E-09
     7.789610182817E-10 2.580000000000E+02 2.138000000000E+03
     3.120000000000E+00 0.000000000000E+00 5.355104804039E-09 0.000000000000E+00
     4.423400000000E+05
E14 2021 01 01 02 40 00-1.279175339732E-03-1.310240804742E-11 0.000000000000E+00
     9.600000000000E+01 7.871875000000E+01 3.239420649158E-09 4.699616898022E-01
     2.870336174965E-06 1.656991521595E-01 4.474073648453E-06 5.289338268280E+03
     4.416000000000E+05 5.612149834633E-06-1.803716636952E+00-3.855675458908E-06
     8.823293305696E-01 2.296562500000E+02 1.861073737146E+00-3.790157875289E-09
     9.364675790621E-10 5.170000000000E+02 2.138000000000E+03
     3.120000000000E+00 0.000000000000E+00-3.026798367500E-09-3.492459654808E-09
     4.423550000000E+05
C28 2021 01 01 02 00 00-1.271939836442E-04 4.648725848710E-12 0.000000000000E+00
     1.000000000000E+00 8.510937500000E+01 3.968379584653E-09 1.625904206534E+00
     4.204455763102E-06 2.718593459576E-04 2.589076757431E-07 5.282618524551E+03
     4.392000000000E+05-3.911554813385E-08-1.485120239825E+00 1.396983861923E-08
     9.661632277080E-01 3.588906250000E+02-2.102300009005E+00-7.150654996340E-09
     1.453631978178E-10 0.000000000000E+00 7.820000000000E+02
     2.000000000000E+00 0.000000000000E+00-4.000000000000E-09-4.000000000000E-09
     4.423680000000E+05 1.000000000000E+00
E14 2021 01 01 02 40 00-1.279174583033E-03-1.308819719270E-11 0.000000000000E+00
     9.600000000000E+01 7.871875000000E+01 3.239420649158E-09 4.699616898022E-01
     2.870336174965E-06 1.656991521595E-01 4.474073648453E-06 5.289338268280E+03
     4.416000000000E+05 5.612149834633E-06-1.803716636952E+00-3.855675458908E-06
     8.823293305696E-01 2.296562500000E+02 1.861073737146E+00-3.790157875289E-09
     9.364675790621E-10 2.580000000000E+02 2.138000000000E+03
     3.120000000000E+00 0.000000000000E+00-3.026798367500E-09 0.000000000000E+00
     4.423900000000E+05
S38 2021 01 01 02 53 52 2.514570951462E-08 0.000000000000E+00 4.424080000000E+05
    -1.251823288000E+04 2.937500000000E-05-8.750000000000E-08 3.100000000000E+01
    -4.026156824000E+04-6.393750000000E-04 2.500000000000E-08 2.000000000000E+00
     1.382520000000E+01 1.688000000000E-03-6.250000000000E-08 8.400000000000E+01
S31 2021 01 01 02 53 52 6.053596735001E-08-3.637978807092E-12 4.424080000000E+05
    -1.913822008000E+04-1.368750000000E-04 0.000000000000E+00 3.100000000000E+01
    -3.757182096000E+04 3.312500000000E-05 1.250000000000E-08 2.000000000000E+00
    -7.256000000000E-01 1.280000000000E-04 0.000000000000E+00 1.990000000000E+02
S33 2021 01 01 02 53 52 4.610046744347E-08-9.094947017729E-13 4.424080000000E+05
    -2.661993872000E+04-3.818750000000E-04-2.500000000000E-08 3.100000000000E+01
    -3.270113280000E+04-7.937500000000E-05 3.750000000000E-08 2.000000000000E+00
    -6.456800000000E+00 2.044000000000E-03 6.250000000000E-08 1.650000000000E+02
E21 2021 01 01 02 40 00-6.403758889064E-04-2.046363078989E-12 0.000000000000E+00
     9.600000000000E+01 6.478125000000E+01 2.649038914532E-09-2.973354902041E+00
     2.954155206680E-06 1.770557137206E-04 1.215934753418E-05 5.440628870010E+03
     4.416000000000E+05-1.303851604462E-08-3.132752481018E+00-5.587935447693E-08
     9.798720077394E-01 9.056250000000E+01-2.976081396593E-02-5.101641075257E-09
    -6.132398296147E-10 5.170000000000E+02 2.138000000000E+03
     3.120000000000E+00 0.000000000000E+00 2.095475792885E-09 2.328306436539E-09
     4.424150000000E+05
S36 2021 01 01 02 53 52 0.000000000000E+00 0.000000000000E+00 4.424430000000E+05
     4.200368800000E+04 0.000000000000E+00 0.000000000000E+00 6.300000000000E+01
     3.674846960000E+03 0.000000000000E+00 0.000000000000E+00 3.276700000000E+04
     0.000000000000E+00 0.000000000000E+00 0.000000000000E+00 2.520000000000E+02
G17 2021 01 01 03 59 44 3.744987770915E-04 4.888534022029E-12 0.000000000000E+00
     5.000000000000E+00 1.355625000000E+02 4.081955744127E-09-3.126025189325E+00
     7.068738341331E-06 1.363533805124E-02 3.868713974953E-06 5.153529235840E+03
     4.463840000000E+05 2.887099981308E-07-1.806087193295E+00-3.725290298462E-08
     9.828896244524E-01 3.133750000000E+02-1.593863853136E+00-7.863898991529E-09
     2.785830326729E-10 1.000000000000E+00 2.138000000000E+03 0.000000000000E+00
     2.000000000000E+00 0.000000000000E+00-1.117587089539E-08 5.000000000000E+00
     4.424760000000E+05 4.000000000000E+00
E21 2021 01 01 02 40 00-6.403758306988E-04-2.046363078989E-12 0.000000000000E+00
     9.600000000000E+01 6.478125000000E+01 2.649038914532E-09-2.973354902041E+00
     2.954155206680E-06 1.770557137206E-04 1.215934753418E-05 5.440628870010E+03
     4.416000000000E+05-1.303851604462E-08-3.132752481018E+00-5.587935447693E-08
     9.798720077394E-01 9.056250000000E+01-2.976081396593E-02-5.101641075257E-09
    -6.132398296147E-10 2.580000000000E+02 2.138000000000E+03
     3.120000000000E+00 0.000000000000E+00 2.095475792885E-09 0.000000000000E+00
     4.424900000000E+05
S36 2021 01 01 02 56 00 0.000000000000E+00 0.000000000000E+00 4.425710000000E+05
     4.200368800000E+04 0.000000000000E+00 0.000000000000E+00 6.300000000000E+01
     3.674846960000E+03 0.000000000000E+00 0.000000000000E+00 3.276700000000E+04
     0.000000000000E+00 0.000000000000E+00 0.000000000000E+00 2.530000000000E+02
R11 2021 01 01 02 45 00 5.023553967476E-06-0.000000000000E+00 4.425600000000E+05
    -1.045819677734E+04 1.455042839050E+00 9.313225746155E-10 4.000000000000E+00
    -3.367582519531E+03-2.795312881470E+00 0.000000000000E+00 0.000000000000E+00
     2.303015478516E+04 2.514581680298E-01-2.793967723846E-09 0.000000000000E+00
S38 2021 01 01 02 58 08 2.514570951462E-08 0.000000000000E+00 4.426620000000E+05
    -1.251822824000E+04 8.750000000000E-06-7.500000000000E-08 3.100000000000E+01
    -4.026173112000E+04-6.312500000000E-04 2.500000000000E-08 2.000000000000E+00
     1.425520000000E+01 1.672000000000E-03-6.250000000000E-08 8.500000000000E+01
S31 2021 01 01 02 58 08 5.960464477539E-08-2.728484105319E-12 4.426620000000E+05
    -1.913825512000E+04-1.368750000000E-04 0.000000000000E+00 3.100000000000E+01
    -3.757181208000E+04 3.687500000000E-05 1.250000000000E-08 2.000000000000E+00
    -6.928000000000E-01 1.320000000000E-04 0.000000000000E+00 2.000000000000E+02
S33 2021 01 01 02 58 08 4.563480615616E-08-9.094947017729E-13 4.426620000000E+05
    -2.662003728000E+04-3.887500000000E-04-2.500000000000E-08 3.100000000000E+01
    -3.270115192000E+04-6.875000000000E-05 3.750000000000E-08 2.000000000000E+00
    -5.931600000000E+00 2.052000000000E-03 0.000000000000E+00 1.660000000000E+02
S36 2021 01 01 02 58 08 0.000000000000E+00 0.000000000000E+00 4.427020000000E+05
     4.200368800000E+04 0.000000000000E+00 0.000000000000E+00 6.300000000000E+01
     3.674846960000E+03 0.000000000000E+00 0.000000000000E+00 3.276700000000E+04
     0.000000000000E+00 0.000000000000E+00 0.000000000000E+00 2.540000000000E+02
R09 2021 01 01 03 15 00 1.615565270185E-05 1.818989403546E-12 4.428000000000E+05
     1.054147998047E+04-3.017330169678E-01 2.793967723846E-09 0.000000000000E+00
    -2.280596630859E+04 5.039377212524E-01-0.000000000000E+00-2.000000000000E+00
    -4.193069824219E+03-3.492725372314E+00 2.793967723846E-09 0.000000000000E+00
R10 2021 01 01 03 15 00-6.518047302961E-05 0.000000000000E+00 4.428000000000E+05
     1.909152832031E+03 4.387617111206E-01 4.656612873077E-09 0.000000000000E+00
    -2.233804443359E+04-1.620939254761E+00-0.000000000000E+00-7.000000000000E+00
     1.222941162109E+04-3.019812583923E+00 9.313225746155E-10 0.000000000000E+00
